IRIDIUM 166             
1 43570U 18061B   24071.63109388  .00000179  00000+0  57029-4 0  9990
2 43570  86.3967  42.5645 0002481  92.6249 267.5231 14.34218135294781
IRIDIUM 158             
1 43571U 18061C   24071.87845321  .00000150  00000+0  46635-4 0  9991
2 43571  86.3966  42.4703 0002467  84.6542 275.4935 14.34216351294794
IRIDIUM 165             
1 43572U 18061D   24072.46197213  .00000162  00000+0  50955-4 0  9991
2 43572  86.3971  42.2569 0002486  84.5978 275.5501 14.34217058294898
IRIDIUM 155             
1 43573U 18061E   24071.65644351  .00000126  00000+0  38047-4 0  9990
2 43573  86.3965  42.5036 0002229  91.9444 268.2007 14.34213348294752
IRIDIUM 154             
1 43574U 18061F   24071.84673929  .00000385  00000+0  13050-3 0  9998
2 43574  86.3974  42.5169 0002242  81.9513 278.1937 14.34216571294822
IRIDIUM 163             
1 43575U 18061G   24071.89748343  .00000021  00000+0  27117-6 0  9996
2 43575  86.3967  42.4371 0002119  86.2074 273.9364 14.34216915294809
IRIDIUM 156             
1 43576U 18061H   24072.63956225  .00000238  00000+0  78022-4 0  9999
2 43576  86.3969  42.1329 0002446  88.2054 271.9422 14.34216734294896
IRIDIUM 164             
1 43577U 18061J   24071.85308297  .00000112  00000+0  33093-4 0  9993
2 43577  86.3968  42.4892 0002428  83.0809 277.0662 14.34217515294830
